[
  {
    "OBJECT_NAME": "STARLINK-5344",
    "OBJECT_ID": "23015AX",
    "EPOCH": "2025-11-11T04:48:46.901376",
    "MEAN_MOTION": 15.02545857,
    "ECCENTRICITY": 0.0001269,
    "INCLINATION": 43.0042,
    "RA_OF_ASC_NODE": 262.5113,
    "ARG_OF_PERICENTER": 282.4276,
    "MEAN_ANOMALY": 77.6424,
    "EPHEMERIS_TYPE": 0,
    "CLASSIFICATION_TYPE": "U",
    "NORAD_CAT_ID": 55494,
    "ELEMENT_SET_NO": 999,
    "REV_AT_EPOCH": 15278,
    "BSTAR": 6.093300000000001e-05,
    "MEAN_MOTION_DOT": 6.2e-06,
    "MEAN_MOTION_DDOT": 0.0,
    "TLE_LINE1": "1 55494U 23015AX  25315.20054284  .00000620  00000+0  60933-4 0  9991",
    "TLE_LINE2": "2 55494  43.0042 262.5113 0001269 282.4276  77.6424 15.02545857152786",
    "COMMENT": "Grouped by shell and plane from TLE"
  },
  {
    "OBJECT_NAME": "STARLINK-5363",
    "OBJECT_ID": "23015BA",
    "EPOCH": "2025-11-11T06:22:53.682240",
    "MEAN_MOTION": 15.02560298,
    "ECCENTRICITY": 0.0001242,
    "INCLINATION": 43.004,
    "RA_OF_ASC_NODE": 262.1388,
    "ARG_OF_PERICENTER": 274.0678,
    "MEAN_ANOMALY": 86.0023,
    "EPHEMERIS_TYPE": 0,
    "CLASSIFICATION_TYPE": "U",
    "NORAD_CAT_ID": 55497,
    "ELEMENT_SET_NO": 999,
    "REV_AT_EPOCH": 15279,
    "BSTAR": 0.00010954,
    "MEAN_MOTION_DOT": 1.277e-05,
    "MEAN_MOTION_DDOT": 0.0,
    "TLE_LINE1": "1 55497U 23015BA  25315.26589910  .00001277  00000+0  10954-3 0  9995",
    "TLE_LINE2": "2 55497  43.0040 262.1388 0001242 274.0678  86.0023 15.02560298152797",
    "COMMENT": "Grouped by shell and plane from TLE"
  },
  {
    "OBJECT_NAME": "STARLINK-5365",
    "OBJECT_ID": "23015BB",
    "EPOCH": "2025-11-11T04:34:25.187520",
    "MEAN_MOTION": 15.02527701,
    "ECCENTRICITY": 0.0001293,
    "INCLINATION": 43.0046,
    "RA_OF_ASC_NODE": 262.4373,
    "ARG_OF_PERICENTER": 263.9096,
    "MEAN_ANOMALY": 96.1599,
    "EPHEMERIS_TYPE": 0,
    "CLASSIFICATION_TYPE": "U",
    "NORAD_CAT_ID": 55498,
    "ELEMENT_SET_NO": 999,
    "REV_AT_EPOCH": 15278,
    "BSTAR": 0.00027724,
    "MEAN_MOTION_DOT": 3.542e-05,
    "MEAN_MOTION_DDOT": 0.0,
    "TLE_LINE1": "1 55498U 23015BB  25315.19056930  .00003542  00000+0  27724-3 0  9999",
    "TLE_LINE2": "2 55498  43.0046 262.4373 0001293 263.9096  96.1599 15.02527701152789",
    "COMMENT": "Grouped by shell and plane from TLE"
  },
  {
    "OBJECT_NAME": "STARLINK-5366",
    "OBJECT_ID": "23015BC",
    "EPOCH": "2025-11-11T04:24:49.022208",
    "MEAN_MOTION": 15.0252347,
    "ECCENTRICITY": 9.98e-05,
    "INCLINATION": 43.0039,
    "RA_OF_ASC_NODE": 262.3851,
    "ARG_OF_PERICENTER": 257.6847,
    "MEAN_ANOMALY": 102.3883,
    "EPHEMERIS_TYPE": 0,
    "CLASSIFICATION_TYPE": "U",
    "NORAD_CAT_ID": 55499,
    "ELEMENT_SET_NO": 999,
    "REV_AT_EPOCH": 15353,
    "BSTAR": 0.0,
    "MEAN_MOTION_DOT": -1.2e-05,
    "MEAN_MOTION_DDOT": 0.0,
    "TLE_LINE1": "1 55499U 23015BC  25315.18390072 -.00001200  00000+0 -73798-4 0  9991",
    "TLE_LINE2": "2 55499  43.0039 262.3851 0000998 257.6847 102.3883 15.02523470153536",
    "COMMENT": "Grouped by shell and plane from TLE"
  },
  {
    "OBJECT_NAME": "STARLINK-5141",
    "OBJECT_ID": "23015BD",
    "EPOCH": "2025-11-11T06:18:07.025184",
    "MEAN_MOTION": 15.02540632,
    "ECCENTRICITY": 0.000138,
    "INCLINATION": 43.0034,
    "RA_OF_ASC_NODE": 262.1177,
    "ARG_OF_PERICENTER": 273.1553,
    "MEAN_ANOMALY": 86.9131,
    "EPHEMERIS_TYPE": 0,
    "CLASSIFICATION_TYPE": "U",
    "NORAD_CAT_ID": 55500,
    "ELEMENT_SET_NO": 999,
    "REV_AT_EPOCH": 15279,
    "BSTAR": 5.2924000000000004e-05,
    "MEAN_MOTION_DOT": 5.11e-06,
    "MEAN_MOTION_DDOT": 0.0,
    "TLE_LINE1": "1 55500U 23015BD  25315.26258131  .00000511  00000+0  52924-4 0  9992",
    "TLE_LINE2": "2 55500  43.0034 262.1177 0001380 273.1553  86.9131 15.02540632152795",
    "COMMENT": "Grouped by shell and plane from TLE"
  },
  {
    "OBJECT_NAME": "STARLINK-5367",
    "OBJECT_ID": "23015BE",
    "EPOCH": "2025-11-11T06:03:42.657984",
    "MEAN_MOTION": 15.02595536,
    "ECCENTRICITY": 0.000115,
    "INCLINATION": 43.003,
    "RA_OF_ASC_NODE": 262.0372,
    "ARG_OF_PERICENTER": 290.689,
    "MEAN_ANOMALY": 69.3829,
    "EPHEMERIS_TYPE": 0,
    "CLASSIFICATION_TYPE": "U",
    "NORAD_CAT_ID": 55501,
    "ELEMENT_SET_NO": 999,
    "REV_AT_EPOCH": 15279,
    "BSTAR": 0.0,
    "MEAN_MOTION_DOT": -0.00011051,
    "MEAN_MOTION_DDOT": 0.0,
    "TLE_LINE1": "1 55501U 23015BE  25315.25257706 -.00011051  00000+0 -80301-3 0  9991",
    "TLE_LINE2": "2 55501  43.0030 262.0372 0001150 290.6890  69.3829 15.02595536152793",
    "COMMENT": "Grouped by shell and plane from TLE"
  },
  {
    "OBJECT_NAME": "STARLINK-5751",
    "OBJECT_ID": "23020H",
    "EPOCH": "2025-11-11T05:54:10.297728",
    "MEAN_MOTION": 15.02525521,
    "ECCENTRICITY": 0.0001065,
    "INCLINATION": 43.0043,
    "RA_OF_ASC_NODE": 262.1284,
    "ARG_OF_PERICENTER": 265.6884,
    "MEAN_ANOMALY": 94.3836,
    "EPHEMERIS_TYPE": 0,
    "CLASSIFICATION_TYPE": "U",
    "NORAD_CAT_ID": 55576,
    "ELEMENT_SET_NO": 999,
    "REV_AT_EPOCH": 15140,
    "BSTAR": 0.00024032,
    "MEAN_MOTION_DOT": 3.043e-05,
    "MEAN_MOTION_DDOT": 0.0,
    "TLE_LINE1": "1 55576U 23020H   25315.24595252  .00003043  00000+0  24032-3 0  9998",
    "TLE_LINE2": "2 55576  43.0043 262.1284 0001065 265.6884  94.3836 15.02525521151402",
    "COMMENT": "Grouped by shell and plane from TLE"
  },
  {
    "OBJECT_NAME": "STARLINK-5757",
    "OBJECT_ID": "23020M",
    "EPOCH": "2025-11-11T05:50:58.427520",
    "MEAN_MOTION": 15.02527555,
    "ECCENTRICITY": 0.0001212,
    "INCLINATION": 43.0042,
    "RA_OF_ASC_NODE": 262.1091,
    "ARG_OF_PERICENTER": 262.0199,
    "MEAN_ANOMALY": 98.0506,
    "EPHEMERIS_TYPE": 0,
    "CLASSIFICATION_TYPE": "U",
    "NORAD_CAT_ID": 55580,
    "ELEMENT_SET_NO": 999,
    "REV_AT_EPOCH": 15140,
    "BSTAR": 7.0187e-05,
    "MEAN_MOTION_DOT": 7.44e-06,
    "MEAN_MOTION_DDOT": 0.0,
    "TLE_LINE1": "1 55580U 23020M   25315.24373180  .00000744  00000+0  70187-4 0  9995",
    "TLE_LINE2": "2 55580  43.0042 262.1091 0001212 262.0199  98.0506 15.02527555151400",
    "COMMENT": "Grouped by shell and plane from TLE"
  },
  {
    "OBJECT_NAME": "STARLINK-5748",
    "OBJECT_ID": "23020AM",
    "EPOCH": "2025-11-11T05:58:57.868896",
    "MEAN_MOTION": 15.02542779,
    "ECCENTRICITY": 0.0001153,
    "INCLINATION": 43.0038,
    "RA_OF_ASC_NODE": 262.1558,
    "ARG_OF_PERICENTER": 268.2986,
    "MEAN_ANOMALY": 91.7724,
    "EPHEMERIS_TYPE": 0,
    "CLASSIFICATION_TYPE": "U",
    "NORAD_CAT_ID": 55604,
    "ELEMENT_SET_NO": 999,
    "REV_AT_EPOCH": 15140,
    "BSTAR": 0.00013407,
    "MEAN_MOTION_DOT": 1.608e-05,
    "MEAN_MOTION_DDOT": 0.0,
    "TLE_LINE1": "1 55604U 23020AM  25315.24928089  .00001608  00000+0  13407-3 0  9997",
    "TLE_LINE2": "2 55604  43.0038 262.1558 0001153 268.2986  91.7724 15.02542779151403",
    "COMMENT": "Grouped by shell and plane from TLE"
  },
  {
    "OBJECT_NAME": "STARLINK-5714",
    "OBJECT_ID": "23020AX",
    "EPOCH": "2025-11-11T04:39:12.877920",
    "MEAN_MOTION": 15.02534057,
    "ECCENTRICITY": 0.0001093,
    "INCLINATION": 43.0033,
    "RA_OF_ASC_NODE": 262.5525,
    "ARG_OF_PERICENTER": 262.745,
    "MEAN_ANOMALY": 97.3268,
    "EPHEMERIS_TYPE": 0,
    "CLASSIFICATION_TYPE": "U",
    "NORAD_CAT_ID": 55614,
    "ELEMENT_SET_NO": 999,
    "REV_AT_EPOCH": 15139,
    "BSTAR": 5.5936e-05,
    "MEAN_MOTION_DOT": 5.52e-06,
    "MEAN_MOTION_DDOT": 0.0,
    "TLE_LINE1": "1 55614U 23020AX  25315.19389905  .00000552  00000+0  55936-4 0  9991",
    "TLE_LINE2": "2 55614  43.0033 262.5525 0001093 262.7450  97.3268 15.02534057151398",
    "COMMENT": "Grouped by shell and plane from TLE"
  },
  {
    "OBJECT_NAME": "STARLINK-6198",
    "OBJECT_ID": "23078B",
    "EPOCH": "2025-11-11T07:13:16.507200",
    "MEAN_MOTION": 14.98336989,
    "ECCENTRICITY": 0.0002769,
    "INCLINATION": 70.0003,
    "RA_OF_ASC_NODE": 262.8153,
    "ARG_OF_PERICENTER": 274.1914,
    "MEAN_ANOMALY": 85.8928,
    "EPHEMERIS_TYPE": 0,
    "CLASSIFICATION_TYPE": "U",
    "NORAD_CAT_ID": 56768,
    "ELEMENT_SET_NO": 999,
    "REV_AT_EPOCH": 13544,
    "BSTAR": 1.0357e-05,
    "MEAN_MOTION_DOT": 3.1e-07,
    "MEAN_MOTION_DDOT": 0.0,
    "TLE_LINE1": "1 56768U 23078B   25315.30088550  .00000031  00000+0  10357-4 0  9990",
    "TLE_LINE2": "2 56768  70.0003 262.8153 0002769 274.1914  85.8928 14.98336989135440",
    "COMMENT": "Grouped by shell and plane from TLE"
  },
  {
    "OBJECT_NAME": "STARLINK-6274",
    "OBJECT_ID": "23078K",
    "EPOCH": "2025-11-11T06:55:16.565088",
    "MEAN_MOTION": 14.98336319,
    "ECCENTRICITY": 0.0002862,
    "INCLINATION": 69.999,
    "RA_OF_ASC_NODE": 263.1661,
    "ARG_OF_PERICENTER": 272.5008,
    "MEAN_ANOMALY": 87.5824,
    "EPHEMERIS_TYPE": 0,
    "CLASSIFICATION_TYPE": "U",
    "NORAD_CAT_ID": 56776,
    "ELEMENT_SET_NO": 999,
    "REV_AT_EPOCH": 13543,
    "BSTAR": 9.9188e-05,
    "MEAN_MOTION_DOT": 1.091e-05,
    "MEAN_MOTION_DDOT": 0.0,
    "TLE_LINE1": "1 56776U 23078K   25315.28838617  .00001091  00000+0  99188-4 0  9999",
    "TLE_LINE2": "2 56776  69.9990 263.1661 0002862 272.5008  87.5824 14.98336319135439",
    "COMMENT": "Grouped by shell and plane from TLE"
  },
  {
    "OBJECT_NAME": "STARLINK-6304",
    "OBJECT_ID": "23078M",
    "EPOCH": "2025-11-11T06:49:16.734144",
    "MEAN_MOTION": 14.98326394,
    "ECCENTRICITY": 0.0002721,
    "INCLINATION": 69.9999,
    "RA_OF_ASC_NODE": 263.1515,
    "ARG_OF_PERICENTER": 280.4246,
    "MEAN_ANOMALY": 79.6607,
    "EPHEMERIS_TYPE": 0,
    "CLASSIFICATION_TYPE": "U",
    "NORAD_CAT_ID": 56778,
    "ELEMENT_SET_NO": 999,
    "REV_AT_EPOCH": 13543,
    "BSTAR": 0.00019912,
    "MEAN_MOTION_DOT": 2.283e-05,
    "MEAN_MOTION_DDOT": 0.0,
    "TLE_LINE1": "1 56778U 23078M   25315.28422146  .00002283  00000+0  19912-3 0  9997",
    "TLE_LINE2": "2 56778  69.9999 263.1515 0002721 280.4246  79.6607 14.98326394135437",
    "COMMENT": "Grouped by shell and plane from TLE"
  }
]